start=new Date('2022-04-11T00:00:00.000Z').valueOf();
sats=[{"RCS_SIZE":"LARGE","MEAN_MOTION_DOT":"0.00002000","NORAD_CAT_ID":"46371","PERIAPSIS":"546.163","PERIOD":"95.592","ELEMENT_SET_NO":"999","GP_ID":"200939662","APOAPSIS":"548.285","MEAN_MOTION":"15.06396733","CENTER_NAME":"EARTH","REF_FRAME":"TEME","DECAY_DATE":null,"TIME_SYSTEM":"UTC","BSTAR":"0.00015316000000","TLE_LINE1":"1 46371U 20062AY  22100.84597281  .00002000  00000-0  15316-3 0  9991","REV_AT_EPOCH":"8923","RA_OF_ASC_NODE":"290.9366","SITE":"AFETR","COUNTRY_CODE":"US","SEMIMAJOR_AXIS":"6925.359","CLASSIFICATION_TYPE":"U","EPHEMERIS_TYPE":"0","MEAN_MOTION_DDOT":"0.0000000000000","LAUNCH_DATE":"2020-09-03","ECCENTRICITY":"0.00015320","TLE_LINE2":"2 46371  53.0534 290.9366 0001532  57.4318 302.6819 15.06396733 89231","EPOCH":"2022-04-10T20:18:12.050784","OBJECT_NAME":"STARLINK-1688","ARG_OF_PERICENTER":"57.4318","OBJECT_ID":"2020-062AY","FILE":"3396586","MEAN_ELEMENT_THEORY":"SGP4","OBJECT_TYPE":"PAYLOAD","INCLINATION":"53.0534","MEAN_ANOMALY":"302.6819"},{"REF_FRAME":"TEME","CENTER_NAME":"EARTH","MEAN_MOTION":"15.06413767","APOAPSIS":"548.414","GP_ID":"200938410","ELEMENT_SET_NO":"999","PERIOD":"95.591","PERIAPSIS":"545.929","NORAD_CAT_ID":"46372","MEAN_MOTION_DOT":"0.00001558","RCS_SIZE":"LARGE","OBJECT_TYPE":"PAYLOAD","MEAN_ANOMALY":"294.9731","MEAN_ELEMENT_THEORY":"SGP4","INCLINATION":"53.0551","OBJECT_ID":"2020-062AZ","FILE":"3396586","ARG_OF_PERICENTER":"65.1444","OBJECT_NAME":"STARLINK-1689","TLE_LINE2":"2 46372  53.0551 310.8963 0001794  65.1444 294.9731 15.06413767 88953","EPOCH":"2022-04-10T20:31:27.309216","ECCENTRICITY":"0.00017940","LAUNCH_DATE":"2020-09-03","EPHEMERIS_TYPE":"0","MEAN_MOTION_DDOT":"0.0000000000000","CLASSIFICATION_TYPE":"U","SEMIMAJOR_AXIS":"6925.306","COUNTRY_CODE":"US","SITE":"AFETR","REV_AT_EPOCH":"8895","RA_OF_ASC_NODE":"310.8963","BSTAR":"0.00012343000000","TLE_LINE1":"1 46372U 20062AZ  22100.85517719  .00001558  00000-0  12343-3 0  9995","TIME_SYSTEM":"UTC","DECAY_DATE":null},{"GP_ID":"200938660","MEAN_MOTION":"15.06411408","APOAPSIS":"547.990","CENTER_NAME":"EARTH","REF_FRAME":"TEME","MEAN_MOTION_DOT":"0.00009665","RCS_SIZE":"LARGE","NORAD_CAT_ID":"46374","ELEMENT_SET_NO":"999","PERIOD":"95.591","PERIAPSIS":"546.367","CLASSIFICATION_TYPE":"U","MEAN_MOTION_DDOT":"0.0000000000000","EPHEMERIS_TYPE":"0","ARG_OF_PERICENTER":"80.1752","EPOCH":"2022-04-10T19:15:49.735008","TLE_LINE2":"2 46374  53.0542 241.1517 0001172  80.1752 279.9369 15.06411408 89923","OBJECT_NAME":"STARLINK-1711","ECCENTRICITY":"0.00011720","LAUNCH_DATE":"2020-09-03","MEAN_ANOMALY":"279.9369","OBJECT_TYPE":"PAYLOAD","INCLINATION":"53.0542","MEAN_ELEMENT_THEORY":"SGP4","OBJECT_ID":"2020-062BB","FILE":"3396586","TIME_SYSTEM":"UTC","DECAY_DATE":null,"REV_AT_EPOCH":"8992","RA_OF_ASC_NODE":"241.1517","BSTAR":"0.00066667000000","TLE_LINE1":"1 46374U 20062BB  22100.80265897  .00009665  00000-0  66667-3 0  9994","SITE":"AFETR","SEMIMAJOR_AXIS":"6925.314","COUNTRY_CODE":"US"},{"SITE":"AFETR","COUNTRY_CODE":"US","SEMIMAJOR_AXIS":"6925.355","DECAY_DATE":null,"TIME_SYSTEM":"UTC","TLE_LINE1":"1 46375U 20062BC  22100.81694673  .00000016  00000-0  20006-4 0  9993","BSTAR":"0.00002000600000","RA_OF_ASC_NODE":"266.0671","REV_AT_EPOCH":"8957","LAUNCH_DATE":"2020-09-03","ECCENTRICITY":"0.00018080","EPOCH":"2022-04-10T19:36:24.197472","TLE_LINE2":"2 46375  53.0544 266.0671 0001808  49.0138 311.1007 15.06398017 89570","OBJECT_NAME":"STARLINK-1724","ARG_OF_PERICENTER":"49.0138","OBJECT_ID":"2020-062BC","FILE":"3396586","OBJECT_TYPE":"PAYLOAD","INCLINATION":"53.0544","MEAN_ANOMALY":"311.1007","MEAN_ELEMENT_THEORY":"SGP4","CLASSIFICATION_TYPE":"U","MEAN_MOTION_DDOT":"0.0000000000000","EPHEMERIS_TYPE":"0","PERIAPSIS":"545.968","PERIOD":"95.592","ELEMENT_SET_NO":"999","RCS_SIZE":"LARGE","MEAN_MOTION_DOT":"0.00000016","NORAD_CAT_ID":"46375","CENTER_NAME":"EARTH","REF_FRAME":"TEME","GP_ID":"200939912","APOAPSIS":"548.472","MEAN_MOTION":"15.06398017"},{"ELEMENT_SET_NO":"999","PERIOD":"95.592","PERIAPSIS":"546.109","MEAN_MOTION_DOT":"0.00002121","RCS_SIZE":"LARGE","NORAD_CAT_ID":"46376","CENTER_NAME":"EARTH","REF_FRAME":"TEME","GP_ID":"200940163","MEAN_MOTION":"15.06404137","APOAPSIS":"548.293","SITE":"AFETR","SEMIMAJOR_AXIS":"6925.336","COUNTRY_CODE":"US","TIME_SYSTEM":"UTC","DECAY_DATE":null,"RA_OF_ASC_NODE":"266.0139","REV_AT_EPOCH":"8957","BSTAR":"0.00016124000000","TLE_LINE1":"1 46376U 20062BD  22100.83168085  .00002121  00000-0  16124-3 0  9993","ARG_OF_PERICENTER":"69.0349","OBJECT_NAME":"STARLINK-1742","TLE_LINE2":"2 46376  53.0574 266.0139 0001577  69.0349 291.0809 15.06404137 89579","EPOCH":"2022-04-10T19:57:37.225440","ECCENTRICITY":"0.00015770","LAUNCH_DATE":"2020-09-03","OBJECT_TYPE":"PAYLOAD","INCLINATION":"53.0574","MEAN_ELEMENT_THEORY":"SGP4","MEAN_ANOMALY":"291.0809","OBJECT_ID":"2020-062BD","FILE":"3396586","CLASSIFICATION_TYPE":"U","MEAN_MOTION_DDOT":"0.0000000000000","EPHEMERIS_TYPE":"0"},{"TIME_SYSTEM":"UTC","DECAY_DATE":null,"BSTAR":"0.00011601000000","TLE_LINE1":"1 46380U 20062BH  22100.79805502  .00001447  00000-0  11601-3 0  9990","RA_OF_ASC_NODE":"291.1623","REV_AT_EPOCH":"8922","SITE":"AFETR","COUNTRY_CODE":"US","SEMIMAJOR_AXIS":"6925.349","CLASSIFICATION_TYPE":"U","EPHEMERIS_TYPE":"0","MEAN_MOTION_DDOT":"0.0000000000000","ECCENTRICITY":"0.00015270","LAUNCH_DATE":"2020-09-03","ARG_OF_PERICENTER":"61.6043","EPOCH":"2022-04-10T19:09:11.953728","TLE_LINE2":"2 46380  53.0556 291.1623 0001527  61.6043 298.5100 15.06399726 89220","OBJECT_NAME":"STARLINK-1758","FILE":"3396586","OBJECT_ID":"2020-062BH","MEAN_ELEMENT_THEORY":"SGP4","OBJECT_TYPE":"PAYLOAD","MEAN_ANOMALY":"298.5100","INCLINATION":"53.0556","RCS_SIZE":"LARGE","MEAN_MOTION_DOT":"0.00001447","NORAD_CAT_ID":"46380","ELEMENT_SET_NO":"999","PERIAPSIS":"546.157","PERIOD":"95.592","GP_ID":"200938911","MEAN_MOTION":"15.06399726","APOAPSIS":"548.272","CENTER_NAME":"EARTH","REF_FRAME":"TEME"},{"DECAY_DATE":null,"TIME_SYSTEM":"UTC","BSTAR":"0.00006620000000","TLE_LINE1":"1 46382U 20062BK  22100.78008581  .00000705  00000-0  66200-4 0  9995","REV_AT_EPOCH":"8957","RA_OF_ASC_NODE":"266.2553","SITE":"AFETR","COUNTRY_CODE":"US","SEMIMAJOR_AXIS":"6925.342","CLASSIFICATION_TYPE":"U","MEAN_MOTION_DDOT":"0.0000000000000","EPHEMERIS_TYPE":"0","LAUNCH_DATE":"2020-09-03","ECCENTRICITY":"0.00017540","TLE_LINE2":"2 46382  53.0539 266.2553 0001754  57.3531 302.7627 15.06402257 89578","OBJECT_NAME":"STARLINK-1769","EPOCH":"2022-04-10T18:43:19.413984","ARG_OF_PERICENTER":"57.3531","FILE":"3396586","OBJECT_ID":"2020-062BK","OBJECT_TYPE":"PAYLOAD","INCLINATION":"53.0539","MEAN_ANOMALY":"302.7627","MEAN_ELEMENT_THEORY":"SGP4","RCS_SIZE":"LARGE","MEAN_MOTION_DOT":"0.00000705","NORAD_CAT_ID":"46382","PERIOD":"95.592","PERIAPSIS":"545.992","ELEMENT_SET_NO":"999","GP_ID":"200939161","APOAPSIS":"548.421","MEAN_MOTION":"15.06402257","CENTER_NAME":"EARTH","REF_FRAME":"TEME"},{"TIME_SYSTEM":"UTC","DECAY_DATE":null,"TLE_LINE1":"1 46383U 20062BL  22100.83306927  .00003878  00000-0  27909-3 0  9993","BSTAR":"0.00027909000000","RA_OF_ASC_NODE":"311.0120","REV_AT_EPOCH":"8894","SITE":"AFETR","COUNTRY_CODE":"US","SEMIMAJOR_AXIS":"6925.342","CLASSIFICATION_TYPE":"U","MEAN_MOTION_DDOT":"0.0000000000000","EPHEMERIS_TYPE":"0","ECCENTRICITY":"0.00015900","LAUNCH_DATE":"2020-09-03","ARG_OF_PERICENTER":"74.9477","TLE_LINE2":"2 46383  53.0549 311.0120 0001590  74.9477 285.1688 15.06402031 88942","OBJECT_NAME":"STARLINK-1770","EPOCH":"2022-04-10T19:59:37.184928","OBJECT_ID":"2020-062BL","FILE":"3396586","OBJECT_TYPE":"PAYLOAD","INCLINATION":"53.0549","MEAN_ELEMENT_THEORY":"SGP4","MEAN_ANOMALY":"285.1688","RCS_SIZE":"LARGE","MEAN_MOTION_DOT":"0.00003878","NORAD_CAT_ID":"46383","ELEMENT_SET_NO":"999","PERIOD":"95.592","PERIAPSIS":"546.106","GP_ID":"200939412","MEAN_MOTION":"15.06402031","APOAPSIS":"548.308","CENTER_NAME":"EARTH","REF_FRAME":"TEME"},{"TLE_LINE2":"2 46384  53.0568 310.9933 0001434  76.7186 283.3962 15.06410739 88947","OBJECT_NAME":"STARLINK-1771","EPOCH":"2022-04-10T20:04:54.665184","ARG_OF_PERICENTER":"76.7186","LAUNCH_DATE":"2020-09-03","ECCENTRICITY":"0.00014340","MEAN_ELEMENT_THEORY":"SGP4","OBJECT_TYPE":"PAYLOAD","INCLINATION":"53.0568","MEAN_ANOMALY":"283.3962","OBJECT_ID":"2020-062BM","FILE":"3396586","CLASSIFICATION_TYPE":"U","MEAN_MOTION_DDOT":"0.0000000000000","EPHEMERIS_TYPE":"0","SITE":"AFETR","SEMIMAJOR_AXIS":"6925.316","COUNTRY_CODE":"US","DECAY_DATE":null,"TIME_SYSTEM":"UTC","REV_AT_EPOCH":"8894","RA_OF_ASC_NODE":"310.9933","BSTAR":"0.00012499000000","TLE_LINE1":"1 46384U 20062BM  22100.83674381  .00001581  00000-0  12499-3 0  9993","CENTER_NAME":"EARTH","REF_FRAME":"TEME","GP_ID":"200939663","APOAPSIS":"548.174","MEAN_MOTION":"15.06410739","PERIAPSIS":"546.188","PERIOD":"95.591","ELEMENT_SET_NO":"999","MEAN_MOTION_DOT":"0.00001581","RCS_SIZE":"LARGE","NORAD_CAT_ID":"46384"},{"ECCENTRICITY":"0.00014220","LAUNCH_DATE":"2020-10-06","ARG_OF_PERICENTER":"75.3242","TLE_LINE2":"2 46532  53.0532 112.4726 0001422  75.3242 284.7905 15.06403040 84094","EPOCH":"2022-04-10T12:07:14.146176","OBJECT_NAME":"STARLINK-1644","OBJECT_ID":"2020-070A","FILE":"3396223","OBJECT_TYPE":"PAYLOAD","INCLINATION":"53.0532","MEAN_ELEMENT_THEORY":"SGP4","MEAN_ANOMALY":"284.7905","CLASSIFICATION_TYPE":"U","EPHEMERIS_TYPE":"0","MEAN_MOTION_DDOT":"0.0000000000000","SITE":"AFETR","COUNTRY_CODE":"US","SEMIMAJOR_AXIS":"6925.339","TIME_SYSTEM":"UTC","DECAY_DATE":null,"BSTAR":"0.00008135600000","TLE_LINE1":"1 46532U 20070A   22100.50502484  .00000931  00000-0  81356-4 0  9992","REV_AT_EPOCH":"8409","RA_OF_ASC_NODE":"112.4726","CENTER_NAME":"EARTH","REF_FRAME":"TEME","GP_ID":"200907805","MEAN_MOTION":"15.06403040","APOAPSIS":"548.189","ELEMENT_SET_NO":"999","PERIOD":"95.592","PERIAPSIS":"546.219","RCS_SIZE":"LARGE","MEAN_MOTION_DOT":"0.00000931","NORAD_CAT_ID":"46532"}];
